{
  "type": "FeatureCollection",
  "features": [
    {
      "type": "Feature",
      "properties": {
        "norad_id": 36036,
        "name": "SMOS",
        "group": "resource",
        "lat": -13.666688514538807,
        "lon": -179.99254623917264,
        "alt_km": 763.941248240104,
        "timestamp": "2025-12-18T23:35:48.703908+00:00",
        "meta_object_name": "SMOS",
        "meta_object_id": "2009-059A",
        "meta_epoch": "2025-12-18T11:59:07.501632",
        "meta_mean_motion": 14.39746322,
        "meta_eccentricity": 0.00010898,
        "meta_inclination": 98.438,
        "meta_ra_of_asc_node": 177.4625,
        "meta_arg_of_pericenter": 82.1579,
        "meta_mean_anomaly": 277.9733,
        "meta_ephemeris_type": 0,
        "meta_classification_type": "U",
        "meta_norad_cat_id": 36036,
        "meta_element_set_no": 999,
        "meta_rev_at_epoch": 84745,
        "meta_bstar": 0.00011639621,
        "meta_mean_motion_dot": 3.21e-06,
        "meta_mean_motion_ddot": 0,
        "tle_line1": "1 36036U 09059A   25352.49939238  .00000321  00000+0  11640-3 0  9995",
        "tle_line2": "2 36036  98.4380 177.4625 0001089  82.1579 277.9733 14.39746322847451"
      },
      "geometry": {
        "type": "Point",
        "coordinates": [
          -179.99254623917264,
          -13.666688514538807
        ]
      }
    },
    {
      "type": "Feature",
      "properties": {
        "norad_id": 36110,
        "name": "YAOGAN-7",
        "group": "resource",
        "lat": -55.23916707518191,
        "lon": -113.54639985195895,
        "alt_km": 631.7033102208316,
        "timestamp": "2025-12-18T23:35:48.703918+00:00",
        "meta_object_name": "YAOGAN-7",
        "meta_object_id": "2009-069A",
        "meta_epoch": "2025-12-18T14:05:57.484032",
        "meta_mean_motion": 14.77740774,
        "meta_eccentricity": 0.00233388,
        "meta_inclination": 98.0296,
        "meta_ra_of_asc_node": 234.3234,
        "meta_arg_of_pericenter": 261.3362,
        "meta_mean_anomaly": 98.5204,
        "meta_ephemeris_type": 0,
        "meta_classification_type": "U",
        "meta_norad_cat_id": 36110,
        "meta_element_set_no": 999,
        "meta_rev_at_epoch": 86295,
        "meta_bstar": 7.4108113e-05,
        "meta_mean_motion_dot": 4.8e-06,
        "meta_mean_motion_ddot": 0,
        "tle_line1": "1 36110U 09069A   25352.58747088  .00000480  00000+0  74108-4 0  9994",
        "tle_line2": "2 36110  98.0296 234.3234 0023338 261.3362  98.5204 14.77740774862956"
      },
      "geometry": {
        "type": "Point",
        "coordinates": [
          -113.54639985195895,
          -55.23916707518191
        ]
      }
    },
    {
      "type": "Feature",
      "properties": {
        "norad_id": 36605,
        "name": "TANDEM-X",
        "group": "resource",
        "lat": 38.17826565190249,
        "lon": -7.629007873039398,
        "alt_km": 504.6828865330317,
        "timestamp": "2025-12-18T23:35:48.703929+00:00",
        "meta_object_name": "TANDEM-X",
        "meta_object_id": "2010-030A",
        "meta_epoch": "2025-12-18T13:56:33.642816",
        "meta_mean_motion": 15.1915139,
        "meta_eccentricity": 0.00018106,
        "meta_inclination": 97.4444,
        "meta_ra_of_asc_node": 357.8759,
        "meta_arg_of_pericenter": 79.4695,
        "meta_mean_anomaly": 280.6743,
        "meta_ephemeris_type": 0,
        "meta_classification_type": "U",
        "meta_norad_cat_id": 36605,
        "meta_element_set_no": 999,
        "meta_rev_at_epoch": 85922,
        "meta_bstar": 3.9209338e-05,
        "meta_mean_motion_dot": 7.56e-06,
        "meta_mean_motion_ddot": 0,
        "tle_line1": "1 36605U 10030A   25352.58094494  .00000756  00000+0  39209-4 0  9998",
        "tle_line2": "2 36605  97.4444 357.8759 0001810  79.4695 280.6743 15.19151390859229"
      },
      "geometry": {
        "type": "Point",
        "coordinates": [
          -7.629007873039398,
          38.17826565190249
        ]
      }
    },
    {
      "type": "Feature",
      "properties": {
        "norad_id": 36795,
        "name": "CARTOSAT-2B",
        "group": "resource",
        "lat": -71.68784982058804,
        "lon": -162.60668489878282,
        "alt_km": 649.3444753386229,
        "timestamp": "2025-12-18T23:35:48.703939+00:00",
        "meta_object_name": "CARTOSAT-2B",
        "meta_object_id": "2010-035A",
        "meta_epoch": "2025-12-18T14:20:05.868960",
        "meta_mean_motion": 14.78733695,
        "meta_eccentricity": 0.00128993,
        "meta_inclination": 97.7852,
        "meta_ra_of_asc_node": 41.4377,
        "meta_arg_of_pericenter": 59.1637,
        "meta_mean_anomaly": 301.0842,
        "meta_ephemeris_type": 0,
        "meta_classification_type": "U",
        "meta_norad_cat_id": 36795,
        "meta_element_set_no": 999,
        "meta_rev_at_epoch": 83316,
        "meta_bstar": 9.7408567e-05,
        "meta_mean_motion_dot": 6.66e-06,
        "meta_mean_motion_ddot": 0,
        "tle_line1": "1 36795U 10035A   25352.59729015  .00000666  00000+0  97409-4 0  9994",
        "tle_line2": "2 36795  97.7852  41.4377 0012899  59.1637 301.0842 14.78733695833168"
      },
      "geometry": {
        "type": "Point",
        "coordinates": [
          -162.60668489878282,
          -71.68784982058804
        ]
      }
    },
    {
      "type": "Feature",
      "properties": {
        "norad_id": 36834,
        "name": "YAOGAN-10",
        "group": "resource",
        "lat": 72.31057174901659,
        "lon": -141.38496089368007,
        "alt_km": 606.8850242499684,
        "timestamp": "2025-12-18T23:35:48.703950+00:00",
        "meta_object_name": "YAOGAN-10",
        "meta_object_id": "2010-038A",
        "meta_epoch": "2025-12-18T15:30:01.602432",
        "meta_mean_motion": 14.84631195,
        "meta_eccentricity": 0.00014349,
        "meta_inclination": 97.9137,
        "meta_ra_of_asc_node": 12.4228,
        "meta_arg_of_pericenter": 80.7192,
        "meta_mean_anomaly": 23.1848,
        "meta_ephemeris_type": 0,
        "meta_classification_type": "U",
        "meta_norad_cat_id": 36834,
        "meta_element_set_no": 999,
        "meta_rev_at_epoch": 83041,
        "meta_bstar": 0.00024946567,
        "meta_mean_motion_dot": 2.055e-05,
        "meta_mean_motion_ddot": 0,
        "tle_line1": "1 36834U 10038A   25352.64585188  .00002055  00000+0  24947-3 0  9998",
        "tle_line2": "2 36834  97.9137  12.4228 0001434  80.7192  23.1848 14.84631195830414"
      },
      "geometry": {
        "type": "Point",
        "coordinates": [
          -141.38496089368007,
          72.31057174901659
        ]
      }
    },
    {
      "type": "Feature",
      "properties": {
        "norad_id": 37216,
        "name": "COSMO-SKYMED 4",
        "group": "resource",
        "lat": -26.281702607690246,
        "lon": 178.13349895127746,
        "alt_km": 628.546053095447,
        "timestamp": "2025-12-18T23:35:48.703960+00:00",
        "meta_object_name": "COSMO-SKYMED 4",
        "meta_object_id": "2010-060A",
        "meta_epoch": "2025-12-18T13:59:41.479008",
        "meta_mean_motion": 14.82150361,
        "meta_eccentricity": 0.00013544,
        "meta_inclination": 97.88,
        "meta_ra_of_asc_node": 173.8178,
        "meta_arg_of_pericenter": 81.9902,
        "meta_mean_anomaly": 278.1465,
        "meta_ephemeris_type": 0,
        "meta_classification_type": "U",
        "meta_norad_cat_id": 37216,
        "meta_element_set_no": 999,
        "meta_rev_at_epoch": 81781,
        "meta_bstar": 2.4926226e-05,
        "meta_mean_motion_dot": 1.46e-06,
        "meta_mean_motion_ddot": 0,
        "tle_line1": "1 37216U 10060A   25352.58311897  .00000146  00000+0  24926-4 0  9992",
        "tle_line2": "2 37216  97.8800 173.8178 0001354  81.9902 278.1465 14.82150361817819"
      },
      "geometry": {
        "type": "Point",
        "coordinates": [
          178.13349895127746,
          -26.281702607690246
        ]
      }
    },
    {
      "type": "Feature",
      "properties": {
        "norad_id": 37387,
        "name": "RESOURCESAT-2",
        "group": "resource",
        "lat": 19.49754864350441,
        "lon": 53.367354811169776,
        "alt_km": 815.6152752189728,
        "timestamp": "2025-12-18T23:35:48.703994+00:00",
        "meta_object_name": "RESOURCESAT-2",
        "meta_object_id": "2011-015A",
        "meta_epoch": "2025-12-18T15:03:30.445344",
        "meta_mean_motion": 14.21599547,
        "meta_eccentricity": 0.00061591,
        "meta_inclination": 98.7871,
        "meta_ra_of_asc_node": 56.1527,
        "meta_arg_of_pericenter": 26.8957,
        "meta_mean_anomaly": 333.2538,
        "meta_ephemeris_type": 0,
        "meta_classification_type": "U",
        "meta_norad_cat_id": 37387,
        "meta_element_set_no": 999,
        "meta_rev_at_epoch": 76052,
        "meta_bstar": 7.0908143e-05,
        "meta_mean_motion_dot": 1.11e-06,
        "meta_mean_motion_ddot": 0,
        "tle_line1": "1 37387U 11015A   25352.62743571  .00000111  00000+0  70908-4 0  9998",
        "tle_line2": "2 37387  98.7871  56.1527 0006159  26.8957 333.2538 14.21599547760528"
      },
      "geometry": {
        "type": "Point",
        "coordinates": [
          53.367354811169776,
          19.49754864350441
        ]
      }
    }
  ]
}